ALOS (DAICHI)           
1 28931U 06002A   23301.82983881  .00002083  00000+0  40029-3 0  9997
2 28931  98.0056 255.5055 0001813 112.9509 247.1886 14.64664111947325
